KUIPER-00517            
1 69600U 26140J   26196.50979085  .00020177  00000+0  52649-3 0  9996
2 69600  51.8776 261.5519 0009907 285.3966  74.5926 15.38758756  5597
KUIPER-00520            
1 69601U 26140K   26196.40439250  .00012031  00000+0  33026-3 0  9999
2 69601  51.8807 262.3489 0006785 356.7740   3.3202 15.37649987  5571
KUIPER-00522            
1 69602U 26140L   26196.44164163  .00015077  00000+0  39771-3 0  9998
2 69602  51.8758 261.8461 0013548 260.1574  99.7884 15.38607056  5587
KUIPER-00528            
1 69603U 26140M   26196.40710068  .00007328  00000+0  20643-3 0  9994
2 69603  51.8776 262.3554 0005838   2.7431 357.3587 15.37496668  5578
KUIPER-00532            
1 69604U 26140N   26196.54859264  .00010595  00000+0  30246-3 0  9992
2 69604  51.8779 261.7998 0005683  36.3879 323.7493 15.36568329  5592
KUIPER-00533            
1 69605U 26140P   26196.52110464  .00016113  00000+0  42948-3 0  9997
2 69605  51.8788 261.6239 0008017 329.7919  30.2605 15.38285218  5598
KUIPER-00534            
1 69606U 26140Q   26196.43649165  .00019679  00000+0  51344-3 0  9993
2 69606  51.8816 261.8171 0013509 267.3676  92.5765 15.38738369  5584
KUIPER-00537            
1 69607U 26140R   26196.70358682  .00011098  00000+0  34099-3 0  9990
2 69607  51.8798 261.3400 0010192  58.6014 301.5967 15.34164379  5617
KUIPER-00538            
1 69608U 26140S   26196.40190280  .00011378  00000+0  31208-3 0  9996
2 69608  51.8801 262.3284 0006864 343.4540  16.6222 15.37733803  5574
KUIPER-00540            
1 69609U 26140T   26196.54397277  .00011396  00000+0  32028-3 0  9998
2 69609  51.8801 261.7810 0006525  25.6847 334.4462 15.36974706  5593
KUIPER-00541            
1 69610U 26140U   26196.65063291  .00018675  00000+0  49359-3 0  9990
2 69610  51.8814 261.0046 0007813 327.2790  32.7713 15.38434456  5617
KUIPER-00542            
1 69611U 26140V   26196.51953704  .00015503  00000+0  41350-3 0  9993
2 69611  51.8787 261.6133 0007551 305.1433  54.8846 15.38300664  5590
KUIPER-00543            
1 69612U 26140W   26196.48354338  .00006615  00000+0  19130-3 0  9993
2 69612  51.8781 262.1121 0008120  36.0460 324.1072 15.36836323  5588
KUIPER-00544            
1 69613U 26140X   26196.19918831  .00014293  00000+0  38361-3 0  9994
2 69613  51.8786 263.2162 0006760 320.6718  39.3777 15.38181292  5540
KUIPER-00546            
1 69614U 26140Y   26196.43751677  .00011616  00000+0  31466-3 0  9990
2 69614  51.8791 261.8222 0014098 259.3635 100.5764 15.38030937  5587
KUIPER-00547            
1 69615U 26140Z   26196.45328083  .00014631  00000+0  39514-3 0  9996
2 69615  51.8814 261.9298 0010988 291.0370  68.9441 15.37935182  5585
