{"fetched_at":"2026-07-16T06:42:31.905Z","source":"https://celestrak.org/NORAD/elements/gp.php?GROUP=kuiper&FORMAT=JSON","constellation":"kuiper","records":[{"OBJECT_NAME":"KUIPER-00517","OBJECT_ID":"2026-140J","EPOCH":"2026-07-15T12:14:05.929440","CLASSIFICATION_TYPE":"U","MEAN_MOTION":15.38758756,"ECCENTRICITY":0.00099071,"INCLINATION":51.8776,"RA_OF_ASC_NODE":261.5519,"ARG_OF_PERICENTER":285.3966,"MEAN_ANOMALY":74.5926,"EPHEMERIS_TYPE":0,"NORAD_CAT_ID":69600,"ELEMENT_SET_NO":999,"REV_AT_EPOCH":559,"BSTAR":0.00052649208,"MEAN_MOTION_DOT":0.00020177,"MEAN_MOTION_DDOT":0},{"OBJECT_NAME":"KUIPER-00520","OBJECT_ID":"2026-140K","EPOCH":"2026-07-15T09:42:19.512000","CLASSIFICATION_TYPE":"U","MEAN_MOTION":15.37649987,"ECCENTRICITY":0.00067859,"INCLINATION":51.8807,"RA_OF_ASC_NODE":262.3489,"ARG_OF_PERICENTER":356.774,"MEAN_ANOMALY":3.3202,"EPHEMERIS_TYPE":0,"NORAD_CAT_ID":69601,"ELEMENT_SET_NO":999,"REV_AT_EPOCH":557,"BSTAR":0.0003302604,"MEAN_MOTION_DOT":0.00012031,"MEAN_MOTION_DDOT":0},{"OBJECT_NAME":"KUIPER-00522","OBJECT_ID":"2026-140L","EPOCH":"2026-07-15T10:35:57.836832","CLASSIFICATION_TYPE":"U","MEAN_MOTION":15.38607056,"ECCENTRICITY":0.00135484,"INCLINATION":51.8758,"RA_OF_ASC_NODE":261.8461,"ARG_OF_PERICENTER":260.1574,"MEAN_ANOMALY":99.7884,"EPHEMERIS_TYPE":0,"NORAD_CAT_ID":69602,"ELEMENT_SET_NO":999,"REV_AT_EPOCH":558,"BSTAR":0.00039770811,"MEAN_MOTION_DOT":0.00015077,"MEAN_MOTION_DDOT":0},{"OBJECT_NAME":"KUIPER-00528","OBJECT_ID":"2026-140M","EPOCH":"2026-07-15T09:46:13.498752","CLASSIFICATION_TYPE":"U","MEAN_MOTION":15.37496668,"ECCENTRICITY":0.0005838,"INCLINATION":51.8776,"RA_OF_ASC_NODE":262.3554,"ARG_OF_PERICENTER":2.7431,"MEAN_ANOMALY":357.3587,"EPHEMERIS_TYPE":0,"NORAD_CAT_ID":69603,"ELEMENT_SET_NO":999,"REV_AT_EPOCH":557,"BSTAR":0.00020643255,"MEAN_MOTION_DOT":0.00007328,"MEAN_MOTION_DDOT":0},{"OBJECT_NAME":"KUIPER-00532","OBJECT_ID":"2026-140N","EPOCH":"2026-07-15T13:09:58.404096","CLASSIFICATION_TYPE":"U","MEAN_MOTION":15.36568329,"ECCENTRICITY":0.0005683,"INCLINATION":51.8779,"RA_OF_ASC_NODE":261.7998,"ARG_OF_PERICENTER":36.3879,"MEAN_ANOMALY":323.7493,"EPHEMERIS_TYPE":0,"NORAD_CAT_ID":69604,"ELEMENT_SET_NO":999,"REV_AT_EPOCH":559,"BSTAR":0.00030246,"MEAN_MOTION_DOT":0.00010595,"MEAN_MOTION_DDOT":0},{"OBJECT_NAME":"KUIPER-00533","OBJECT_ID":"2026-140P","EPOCH":"2026-07-15T12:30:23.440896","CLASSIFICATION_TYPE":"U","MEAN_MOTION":15.38285218,"ECCENTRICITY":0.0008017,"INCLINATION":51.8788,"RA_OF_ASC_NODE":261.6239,"ARG_OF_PERICENTER":329.7919,"MEAN_ANOMALY":30.2605,"EPHEMERIS_TYPE":0,"NORAD_CAT_ID":69605,"ELEMENT_SET_NO":999,"REV_AT_EPOCH":559,"BSTAR":0.00042948,"MEAN_MOTION_DOT":0.00016113,"MEAN_MOTION_DDOT":0},{"OBJECT_NAME":"KUIPER-00534","OBJECT_ID":"2026-140Q","EPOCH":"2026-07-15T10:28:32.878560","CLASSIFICATION_TYPE":"U","MEAN_MOTION":15.38738369,"ECCENTRICITY":0.00135095,"INCLINATION":51.8816,"RA_OF_ASC_NODE":261.8171,"ARG_OF_PERICENTER":267.3676,"MEAN_ANOMALY":92.5765,"EPHEMERIS_TYPE":0,"NORAD_CAT_ID":69606,"ELEMENT_SET_NO":999,"REV_AT_EPOCH":558,"BSTAR":0.00051344305,"MEAN_MOTION_DOT":0.00019679,"MEAN_MOTION_DDOT":0},{"OBJECT_NAME":"KUIPER-00537","OBJECT_ID":"2026-140R","EPOCH":"2026-07-15T16:53:09.901248","CLASSIFICATION_TYPE":"U","MEAN_MOTION":15.3416438,"ECCENTRICITY":0.00101921,"INCLINATION":51.8798,"RA_OF_ASC_NODE":261.34,"ARG_OF_PERICENTER":58.6014,"MEAN_ANOMALY":301.5967,"EPHEMERIS_TYPE":0,"NORAD_CAT_ID":69607,"ELEMENT_SET_NO":999,"REV_AT_EPOCH":561,"BSTAR":0.00034099012,"MEAN_MOTION_DOT":0.00011098,"MEAN_MOTION_DDOT":0},{"OBJECT_NAME":"KUIPER-00538","OBJECT_ID":"2026-140S","EPOCH":"2026-07-15T09:38:44.401920","CLASSIFICATION_TYPE":"U","MEAN_MOTION":15.37733803,"ECCENTRICITY":0.00068647,"INCLINATION":51.8801,"RA_OF_ASC_NODE":262.3284,"ARG_OF_PERICENTER":343.454,"MEAN_ANOMALY":16.6222,"EPHEMERIS_TYPE":0,"NORAD_CAT_ID":69608,"ELEMENT_SET_NO":999,"REV_AT_EPOCH":557,"BSTAR":0.00031207916,"MEAN_MOTION_DOT":0.00011378,"MEAN_MOTION_DDOT":0},{"OBJECT_NAME":"KUIPER-00540","OBJECT_ID":"2026-140T","EPOCH":"2026-07-15T13:03:19.247328","CLASSIFICATION_TYPE":"U","MEAN_MOTION":15.36974706,"ECCENTRICITY":0.0006525,"INCLINATION":51.8801,"RA_OF_ASC_NODE":261.781,"ARG_OF_PERICENTER":25.6847,"MEAN_ANOMALY":334.4462,"EPHEMERIS_TYPE":0,"NORAD_CAT_ID":69609,"ELEMENT_SET_NO":999,"REV_AT_EPOCH":559,"BSTAR":0.00032028,"MEAN_MOTION_DOT":0.00011396,"MEAN_MOTION_DDOT":0},{"OBJECT_NAME":"KUIPER-00541","OBJECT_ID":"2026-140U","EPOCH":"2026-07-15T15:36:54.683424","CLASSIFICATION_TYPE":"U","MEAN_MOTION":15.38434456,"ECCENTRICITY":0.00078127,"INCLINATION":51.8814,"RA_OF_ASC_NODE":261.0046,"ARG_OF_PERICENTER":327.279,"MEAN_ANOMALY":32.7713,"EPHEMERIS_TYPE":0,"NORAD_CAT_ID":69610,"ELEMENT_SET_NO":999,"REV_AT_EPOCH":561,"BSTAR":0.00049358606,"MEAN_MOTION_DOT":0.00018675,"MEAN_MOTION_DDOT":0},{"OBJECT_NAME":"KUIPER-00542","OBJECT_ID":"2026-140V","EPOCH":"2026-07-15T12:28:08.000256","CLASSIFICATION_TYPE":"U","MEAN_MOTION":15.38300664,"ECCENTRICITY":0.0007551,"INCLINATION":51.8787,"RA_OF_ASC_NODE":261.6133,"ARG_OF_PERICENTER":305.1433,"MEAN_ANOMALY":54.8846,"EPHEMERIS_TYPE":0,"NORAD_CAT_ID":69611,"ELEMENT_SET_NO":999,"REV_AT_EPOCH":559,"BSTAR":0.0004135,"MEAN_MOTION_DOT":0.00015503,"MEAN_MOTION_DDOT":0},{"OBJECT_NAME":"KUIPER-00543","OBJECT_ID":"2026-140W","EPOCH":"2026-07-15T11:36:18.148032","CLASSIFICATION_TYPE":"U","MEAN_MOTION":15.36836323,"ECCENTRICITY":0.00081209,"INCLINATION":51.8781,"RA_OF_ASC_NODE":262.1121,"ARG_OF_PERICENTER":36.046,"MEAN_ANOMALY":324.1072,"EPHEMERIS_TYPE":0,"NORAD_CAT_ID":69612,"ELEMENT_SET_NO":999,"REV_AT_EPOCH":558,"BSTAR":0.00019130301,"MEAN_MOTION_DOT":0.00006615,"MEAN_MOTION_DDOT":0},{"OBJECT_NAME":"KUIPER-00544","OBJECT_ID":"2026-140X","EPOCH":"2026-07-15T04:46:49.869984","CLASSIFICATION_TYPE":"U","MEAN_MOTION":15.38181292,"ECCENTRICITY":0.00067607,"INCLINATION":51.8786,"RA_OF_ASC_NODE":263.2162,"ARG_OF_PERICENTER":320.6718,"MEAN_ANOMALY":39.3777,"EPHEMERIS_TYPE":0,"NORAD_CAT_ID":69613,"ELEMENT_SET_NO":999,"REV_AT_EPOCH":554,"BSTAR":0.00038361422,"MEAN_MOTION_DOT":0.00014293,"MEAN_MOTION_DDOT":0},{"OBJECT_NAME":"KUIPER-00546","OBJECT_ID":"2026-140Y","EPOCH":"2026-07-15T10:30:01.448928","CLASSIFICATION_TYPE":"U","MEAN_MOTION":15.38030937,"ECCENTRICITY":0.00140989,"INCLINATION":51.8791,"RA_OF_ASC_NODE":261.8222,"ARG_OF_PERICENTER":259.3635,"MEAN_ANOMALY":100.5764,"EPHEMERIS_TYPE":0,"NORAD_CAT_ID":69614,"ELEMENT_SET_NO":999,"REV_AT_EPOCH":558,"BSTAR":0.00031465986,"MEAN_MOTION_DOT":0.00011616,"MEAN_MOTION_DDOT":0},{"OBJECT_NAME":"KUIPER-00547","OBJECT_ID":"2026-140Z","EPOCH":"2026-07-15T10:52:43.463712","CLASSIFICATION_TYPE":"U","MEAN_MOTION":15.37935182,"ECCENTRICITY":0.0010988,"INCLINATION":51.8814,"RA_OF_ASC_NODE":261.9298,"ARG_OF_PERICENTER":291.037,"MEAN_ANOMALY":68.9441,"EPHEMERIS_TYPE":0,"NORAD_CAT_ID":69615,"ELEMENT_SET_NO":999,"REV_AT_EPOCH":558,"BSTAR":0.00039514133,"MEAN_MOTION_DOT":0.00014631,"MEAN_MOTION_DDOT":0}]}
